     2.10           G: GLONASS NAV DATA                     RINEX VERSION / TYPE
teqc  2015Jun23                         20210608 02:25:45UTCPGM / RUN BY / DATE
Linux 2.4.21-27.ELsmp|Opteron|gcc -static|Linux x86_64|=+   COMMENT
  2021     5    15    1.024454832077D-08                    CORR TO SYSTEM TIME
                                                            END OF HEADER
18 21  5 16 23 15  0.0 7.677264511585D-05 9.094947017729D-13 8.280000000000D+04
   -1.758700488281D+04-1.269353866577D+00 9.313225746155D-10 0.000000000000D+00
    1.467188964844D+04 8.862485885620D-01 0.000000000000D+00-3.000000000000D+00
   -1.115977148438D+04 3.167828559875D+00 0.000000000000D+00 0.000000000000D+00
 3 21  5 16 23 15  0.0 3.608968108892D-05 0.000000000000D+00 8.280000000000D+04
   -1.070960498047D+04 1.631488800049D-01 1.862645149231D-09 0.000000000000D+00
    7.405401367188D+03-3.005300521851D+00 9.313225746155D-10 5.000000000000D+00
   -2.187679687500D+04-1.099242210388D+00 9.313225746155D-10 0.000000000000D+00
 4 21  5 16 23 15  0.0 8.712802082300D-05 1.818989403546D-12 8.280000000000D+04
   -6.017524414062D+03 2.191867828369D-01 1.862645149231D-09 0.000000000000D+00
    2.225810839844D+04-1.487447738647D+00 1.862645149231D-09 6.000000000000D+00
   -1.087407666016D+04-3.156637191772D+00-0.000000000000D+00 0.000000000000D+00
 5 21  5 16 23 15  0.0 7.188040763140D-05 9.094947017729D-13 8.280000000000D+04
    1.854602050781D+03 1.368618011475D-01 9.313225746155D-10 0.000000000000D+00
    2.466134033203D+04 8.573818206787D-01 9.313225746155D-10 1.000000000000D+00
    6.225298339844D+03-3.447951316833D+00-1.862645149231D-09 0.000000000000D+00
16 21  5 16 23 15  0.0-1.515913754702D-05-9.094947017729D-13 8.280000000000D+04
    1.304053466797D+04-1.704406738281D+00 0.000000000000D+00 0.000000000000D+00
    1.606964111328D+04-1.116590499878D+00 0.000000000000D+00-1.000000000000D+00
    1.480068750000D+04 2.721423149109D+00-2.793967723846D-09 0.000000000000D+00
17 21  5 16 23 15  0.0 4.246728494763D-04 2.728484105319D-12 8.280000000000D+04
   -2.314376220703D+04 7.907228469849D-01 0.000000000000D+00 0.000000000000D+00
    9.153422363281D+03-1.630001068115D-01-9.313225746155D-10 4.000000000000D+00
    5.672867675781D+03 3.487776756287D+00 0.000000000000D+00 0.000000000000D+00
15 21  5 16 23 15  0.0 1.038098707795D-04-0.000000000000D+00 8.286000000000D+04
   -5.052406250000D+03-2.662594795227D+00-0.000000000000D+00 0.000000000000D+00
    9.805905273438D+03-1.675925254822D+00-1.862645149231D-09 0.000000000000D+00
    2.301777783203D+04 1.294145584106D-01-1.862645149231D-09 0.000000000000D+00
19 21  5 16 23 15  0.0-1.439806073904D-04-9.094947017729D-13 8.412000000000D+04
   -3.889105468750D+03-2.654393196106D+00 1.862645149231D-09 0.000000000000D+00
    1.263766308594D+04 1.383079528809D+00 1.862645149231D-09 3.000000000000D+00
   -2.181756689453D+04 1.274556159973D+00 0.000000000000D+00 0.000000000000D+00
18 21  5 16 23 45  0.0 7.677450776100D-05 0.000000000000D+00 8.460000000000D+04
   -1.912593261719D+04-4.448623657227D-01 9.313225746155D-10 0.000000000000D+00
    1.603994824219D+04 5.898828506470D-01-0.000000000000D+00-3.000000000000D+00
   -5.098587890625D+03 3.522932052612D+00 0.000000000000D+00 0.000000000000D+00
16 21  5 16 23 45  0.0-1.516193151474D-05-9.094947017729D-13 8.460000000000D+04
    9.341953613281D+03-2.382806777954D+00-0.000000000000D+00 0.000000000000D+00
    1.404786181641D+04-1.088442802429D+00-0.000000000000D+00-1.000000000000D+00
    1.905917236328D+04 1.979446411133D+00-2.793967723846D-09 0.000000000000D+00
 4 21  5 16 23 45  0.0 8.713081479073D-05 1.818989403546D-12 8.460000000000D+04
   -5.855121582031D+03-7.131481170654D-02 1.862645149231D-09 0.000000000000D+00
    1.890254052734D+04-2.209391593933D+00 9.313225746155D-10 6.000000000000D+00
   -1.606117480469D+04-2.569232940674D+00-0.000000000000D+00 0.000000000000D+00
 5 21  5 16 23 45  0.0 7.188133895397D-05 9.094947017729D-13 8.460000000000D+04
    2.174586425781D+03 1.775903701782D-01 1.862645149231D-09 0.000000000000D+00
    2.540472216797D+04-3.747463226318D-02 9.313225746155D-10 1.000000000000D+00
   -1.416499023438D+02-3.580459594727D+00-1.862645149231D-09 0.000000000000D+00
17 21  5 16 23 45  0.0 4.246793687344D-04 2.728484105319D-12 8.460000000000D+04
   -2.112106152344D+04 1.419418334961D+00-0.000000000000D+00 0.000000000000D+00
    8.348233886719D+03-7.547378540039D-01-1.862645149231D-09 4.000000000000D+00
    1.165103857422D+04 3.111583709717D+00 0.000000000000D+00 0.000000000000D+00
19 21  5 16 23 45  0.0-1.439834013581D-04-9.094947017729D-13 8.460000000000D+04
   -8.159831054688D+03-2.060110092163D+00 1.862645149231D-09 0.000000000000D+00
    1.530258984375D+04 1.536880493164D+00 9.313225746155D-10 3.000000000000D+00
   -1.871000244141D+04 2.155906677246D+00 0.000000000000D+00 0.000000000000D+00
 6 21  5 16 23 45  0.0 1.981239765882D-04 0.000000000000D+00 8.604000000000D+04
    1.031858007812D+04 3.668594360352D-01 0.000000000000D+00 0.000000000000D+00
    1.532614062500D+04 2.380679130554D+00 0.000000000000D+00-4.000000000000D+00
    1.757372070312D+04-2.292818069458D+00-2.793967723846D-09 0.000000000000D+00
